{
    "links": {
        "self": "http://www.neowsapp.com/rest/v1/neo/3445537?api_key=iIulBulltgU6a56xZRHN4H3l9WmuAYTsLGpBGhQ2"
    },
    "id": "3445537",
    "neo_reference_id": "3445537",
    "name": "(2009 BD81)",
    "designation": "2009 BD81",
    "nasa_jpl_url": "http://ssd.jpl.nasa.gov/sbdb.cgi?sstr=3445537",
    "absolute_magnitude_h": 20.7,
    "estimated_diameter": {
        "kilometers": {
            "estimated_diameter_min": 0.1925550782,
            "estimated_diameter_max": 0.4305662442
        },
        "meters": {
            "estimated_diameter_min": 192.5550781879,
            "estimated_diameter_max": 430.566244241
        },
        "miles": {
            "estimated_diameter_min": 0.1196481415,
            "estimated_diameter_max": 0.2675413778
        },
        "feet": {
            "estimated_diameter_min": 631.7424027221,
            "estimated_diameter_max": 1412.6189567557
        }
    },
    "is_potentially_hazardous_asteroid": true,
    "close_approach_data": [
        {
            "close_approach_date": "2009-02-27",
            "close_approach_date_full": "2009-Feb-27 23:01",
            "epoch_date_close_approach": 1235775660000,
            "relative_velocity": {
                "kilometers_per_second": "12.3354253953",
                "kilometers_per_hour": "44407.5314230397",
                "miles_per_hour": "27593.1130667215"
            },
            "miss_distance": {
                "astronomical": "0.0459728309",
                "lunar": "17.8834312201",
                "kilometers": "6877437.580510183",
                "miles": "4273441.5504112054"
            },
            "orbiting_body": "Earth"
        },
        {
            "close_approach_date": "2010-09-11",
            "close_approach_date_full": "2010-Sep-11 15:55",
            "epoch_date_close_approach": 1284220500000,
            "relative_velocity": {
                "kilometers_per_second": "9.4158046665",
                "kilometers_per_hour": "33896.8967994998",
                "miles_per_hour": "21062.2134585558"
            },
            "miss_distance": {
                "astronomical": "1.6408497454",
                "lunar": "638.2905509606",
                "kilometers": "245467626.901882298",
                "miles": "152526510.6085517924"
            },
            "orbiting_body": "Juptr"
        }
    ],
    "orbital_data": {
        "orbit_id": "14",
        "orbit_determination_date": "2017-04-06 09:01:29",
        "first_observation_date": "2009-01-31",
        "last_observation_date": "2009-02-23",
        "data_arc_in_days": 23,
        "observations_used": 46,
        "orbit_uncertainty": "8",
        "minimum_orbit_intersection": ".0455759",
        "jupiter_tisserand_invariant": "3.067",
        "epoch_osculation": "2454870.5",
        "eccentricity": ".6393979349964819",
        "semi_major_axis": "2.592624513148097",
        "inclination": "12.46423358395814",
        "ascending_node_longitude": "344.3789597247662",
        "orbital_period": "1524.782367948972",
        "perihelion_distance": ".9349057532199444",
        "perihelion_argument": "190.5354925343982",
        "aphelion_distance": "4.250343273076249",
        "perihelion_time": "2454901.917565312030",
        "mean_anomaly": "352.5823358466922",
        "mean_motion": ".2360992673887266",
        "equinox": "J2000",
        "orbit_class": {
            "orbit_class_type": "APO",
            "orbit_class_description": "Near-Earth asteroid orbits which cross the Earth’s orbit similar to that of 1862 Apollo",
            "orbit_class_range": "a (semi-major axis) > 1.0 AU; q (perihelion) < 1.017 AU"
        }
    },
    "is_sentry_object": false
}